{"fetched_at":"2026-03-29T16:36:15Z","count":15609,"tles":[{"name":"STARLINK-35434","line1":"1 66246U 25245N   26087.68377255  .00015810  00000+0  54463-3 0  9997","line2":"2 66246  53.1597 195.7392 0001422  51.9165 308.1963 15.30209301 23951","category":"Starlink"}]}